{
  "type": "FeatureCollection",
  "features": [
    {
      "type": "Feature",
      "properties": {
        "norad_id": 2807,
        "name": "OPS 7218 (TRANSIT 16)",
        "group": "nnss",
        "lat": -18.306176562324282,
        "lon": -6.187361107114555,
        "alt_km": 1083.855588534595,
        "timestamp": "2025-12-15T14:57:58.083451+00:00",
        "meta_object_name": "OPS 7218 (TRANSIT 16)",
        "meta_object_id": "1967-048A",
        "meta_epoch": "2025-12-14T18:34:38.360640",
        "meta_mean_motion": 13.50722587,
        "meta_eccentricity": 0.0022033,
        "meta_inclination": 89.6733,
        "meta_ra_of_asc_node": 353.9488,
        "meta_arg_of_pericenter": 108.6359,
        "meta_mean_anomaly": 64.8925,
        "meta_ephemeris_type": 0,
        "meta_classification_type": "U",
        "meta_norad_cat_id": 2807,
        "meta_element_set_no": 999,
        "meta_rev_at_epoch": 88303,
        "meta_bstar": 0.00018276667,
        "meta_mean_motion_dot": 1.28e-06,
        "meta_mean_motion_ddot": 0,
        "tle_line1": "1 02807U 67048A   25348.77405510  .00000128  00000+0  18277-3 0  9991",
        "tle_line2": "2 02807  89.6733 353.9488 0022033 108.6359  64.8925 13.50722587883033"
      },
      "geometry": {
        "type": "Point",
        "coordinates": [
          -6.187361107114555,
          -18.306176562324282
        ]
      }
    },
    {
      "type": "Feature",
      "properties": {
        "norad_id": 2965,
        "name": "OPS 4947 (TRANSIT 17)",
        "group": "nnss",
        "lat": 74.52532814779713,
        "lon": 26.929579430274842,
        "alt_km": 1082.772670088133,
        "timestamp": "2025-12-15T14:57:58.083473+00:00",
        "meta_object_name": "OPS 4947 (TRANSIT 17)",
        "meta_object_id": "1967-092A",
        "meta_epoch": "2025-12-14T16:08:25.129248",
        "meta_mean_motion": 13.53453942,
        "meta_eccentricity": 0.00462991,
        "meta_inclination": 89.2495,
        "meta_ra_of_asc_node": 24.2883,
        "meta_arg_of_pericenter": 228.7003,
        "meta_mean_anomaly": 254.8338,
        "meta_ephemeris_type": 0,
        "meta_classification_type": "U",
        "meta_norad_cat_id": 2965,
        "meta_element_set_no": 999,
        "meta_rev_at_epoch": 87123,
        "meta_bstar": 0.00021683981,
        "meta_mean_motion_dot": 1.58e-06,
        "meta_mean_motion_ddot": 0,
        "tle_line1": "1 02965U 67092A   25348.67251307  .00000158  00000+0  21684-3 0  9996",
        "tle_line2": "2 02965  89.2495  24.2883 0046299 228.7003 254.8338 13.53453942871233"
      },
      "geometry": {
        "type": "Point",
        "coordinates": [
          26.929579430274842,
          74.52532814779713
        ]
      }
    },
    {
      "type": "Feature",
      "properties": {
        "norad_id": 3133,
        "name": "OPS 7034 (TRANSIT 18)",
        "group": "nnss",
        "lat": -25.13193447632006,
        "lon": 93.63383196061453,
        "alt_km": 1032.3968971583436,
        "timestamp": "2025-12-15T14:57:58.083485+00:00",
        "meta_object_name": "OPS 7034 (TRANSIT 18)",
        "meta_object_id": "1968-012A",
        "meta_epoch": "2025-12-14T20:31:22.265184",
        "meta_mean_motion": 13.51566099,
        "meta_eccentricity": 0.0074059,
        "meta_inclination": 90.028,
        "meta_ra_of_asc_node": 273.6448,
        "meta_arg_of_pericenter": 163.0106,
        "meta_mean_anomaly": 264.5526,
        "meta_ephemeris_type": 0,
        "meta_classification_type": "U",
        "meta_norad_cat_id": 3133,
        "meta_element_set_no": 999,
        "meta_rev_at_epoch": 56947,
        "meta_bstar": 0.0001510339,
        "meta_mean_motion_dot": 1.1e-06,
        "meta_mean_motion_ddot": 0,
        "tle_line1": "1 03133U 68012A   25348.85511881  .00000110  00000+0  15103-3 0  9990",
        "tle_line2": "2 03133  90.0280 273.6448 0074059 163.0106 264.5526 13.51566099569473"
      },
      "geometry": {
        "type": "Point",
        "coordinates": [
          93.63383196061453,
          -25.13193447632006
        ]
      }
    },
    {
      "type": "Feature",
      "properties": {
        "norad_id": 4507,
        "name": "NNSS 19 (TRANSIT 19)",
        "group": "nnss",
        "lat": 8.391582255767469,
        "lon": 54.53668049003676,
        "alt_km": 1117.938135227283,
        "timestamp": "2025-12-15T14:57:58.083495+00:00",
        "meta_object_name": "NNSS 19 (TRANSIT 19)",
        "meta_object_id": "1970-067A",
        "meta_epoch": "2025-12-14T22:06:29.146752",
        "meta_mean_motion": 13.5131551,
        "meta_eccentricity": 0.01704286,
        "meta_inclination": 90.0054,
        "meta_ra_of_asc_node": 234.5355,
        "meta_arg_of_pericenter": 287.0016,
        "meta_mean_anomaly": 71.2521,
        "meta_ephemeris_type": 0,
        "meta_classification_type": "U",
        "meta_norad_cat_id": 4507,
        "meta_element_set_no": 999,
        "meta_rev_at_epoch": 72251,
        "meta_bstar": 0.0001402407,
        "meta_mean_motion_dot": 1.07e-06,
        "meta_mean_motion_ddot": 0,
        "tle_line1": "1 04507U 70067A   25348.92117068  .00000107  00000+0  14024-3 0  9993",
        "tle_line2": "2 04507  90.0054 234.5355 0170428 287.0016  71.2521 13.51315510722519"
      },
      "geometry": {
        "type": "Point",
        "coordinates": [
          54.53668049003676,
          8.391582255767469
        ]
      }
    },
    {
      "type": "Feature",
      "properties": {
        "norad_id": 6909,
        "name": "NNSS 20 (TRANSIT 20)",
        "group": "nnss",
        "lat": 84.6827326752619,
        "lon": 73.46584204002018,
        "alt_km": 882.4753737199535,
        "timestamp": "2025-12-15T14:57:58.083506+00:00",
        "meta_object_name": "NNSS 20 (TRANSIT 20)",
        "meta_object_id": "1973-081A",
        "meta_epoch": "2025-12-14T19:15:12.693600",
        "meta_mean_motion": 13.71435217,
        "meta_eccentricity": 0.01566172,
        "meta_inclination": 89.8563,
        "meta_ra_of_asc_node": 255.0233,
        "meta_arg_of_pericenter": 72.2135,
        "meta_mean_anomaly": 289.6047,
        "meta_ephemeris_type": 0,
        "meta_classification_type": "U",
        "meta_norad_cat_id": 6909,
        "meta_element_set_no": 999,
        "meta_rev_at_epoch": 80389,
        "meta_bstar": 0.00026960944,
        "meta_mean_motion_dot": 2.76e-06,
        "meta_mean_motion_ddot": 0,
        "tle_line1": "1 06909U 73081A   25348.80223025  .00000276  00000+0  26961-3 0  9998",
        "tle_line2": "2 06909  89.8563 255.0233 0156617  72.2135 289.6047 13.71435217803899"
      },
      "geometry": {
        "type": "Point",
        "coordinates": [
          73.46584204002018,
          84.6827326752619
        ]
      }
    },
    {
      "type": "Feature",
      "properties": {
        "norad_id": 10457,
        "name": "TRANSAT",
        "group": "nnss",
        "lat": 26.334639758187993,
        "lon": -101.67932265471482,
        "alt_km": 1058.2741805034502,
        "timestamp": "2025-12-15T14:57:58.083516+00:00",
        "meta_object_name": "TRANSAT",
        "meta_object_id": "1977-106A",
        "meta_epoch": "2025-12-14T19:10:47.823168",
        "meta_mean_motion": 13.4894395,
        "meta_eccentricity": 0.00255933,
        "meta_inclination": 89.6482,
        "meta_ra_of_asc_node": 78.5241,
        "meta_arg_of_pericenter": 183.516,
        "meta_mean_anomaly": 288.9959,
        "meta_ephemeris_type": 0,
        "meta_classification_type": "U",
        "meta_norad_cat_id": 10457,
        "meta_element_set_no": 999,
        "meta_rev_at_epoch": 36771,
        "meta_bstar": 0.00011793617,
        "meta_mean_motion_dot": 8.4e-07,
        "meta_mean_motion_ddot": 0,
        "tle_line1": "1 10457U 77106A   25348.79916462  .00000084  00000+0  11794-3 0  9990",
        "tle_line2": "2 10457  89.6482  78.5241 0025593 183.5160 288.9959 13.48943950367711"
      },
      "geometry": {
        "type": "Point",
        "coordinates": [
          -101.67932265471482,
          26.334639758187993
        ]
      }
    },
    {
      "type": "Feature",
      "properties": {
        "norad_id": 12458,
        "name": "NOVA 1",
        "group": "nnss",
        "lat": 30.617146250073386,
        "lon": -88.74305005393528,
        "alt_km": 1163.2594646515654,
        "timestamp": "2025-12-15T14:57:58.083525+00:00",
        "meta_object_name": "NOVA 1",
        "meta_object_id": "1981-044A",
        "meta_epoch": "2025-12-14T20:41:11.154624",
        "meta_mean_motion": 13.23278711,
        "meta_eccentricity": 0.00159174,
        "meta_inclination": 89.8525,
        "meta_ra_of_asc_node": 91.3551,
        "meta_arg_of_pericenter": 98.7846,
        "meta_mean_anomaly": 24.0904,
        "meta_ephemeris_type": 0,
        "meta_classification_type": "U",
        "meta_norad_cat_id": 12458,
        "meta_element_set_no": 999,
        "meta_rev_at_epoch": 15214,
        "meta_bstar": 0.00010101273,
        "meta_mean_motion_dot": 5.2e-07,
        "meta_mean_motion_ddot": 0,
        "tle_line1": "1 12458U 81044A   25348.86193466  .00000052  00000+0  10101-3 0  9994",
        "tle_line2": "2 12458  89.8525  91.3551 0015917  98.7846  24.0904 13.23278711152145"
      },
      "geometry": {
        "type": "Point",
        "coordinates": [
          -88.74305005393528,
          30.617146250073386
        ]
      }
    }
  ]
}